[{"OBJECT_NAME":"STARLINK-31959","OBJECT_ID":"2024-106D","EPOCH":"2026-03-09T09:51:39.794400","MEAN_MOTION":15.27564146,"ECCENTRICITY":5.563e-5,"INCLINATION":43.0019,"RA_OF_ASC_NODE":330.2606,"ARG_OF_PERICENTER":12.705,"MEAN_ANOMALY":347.3816,"EPHEMERIS_TYPE":0,"CLASSIFICATION_TYPE":"U","NORAD_CAT_ID":59925,"ELEMENT_SET_NO":999,"REV_AT_EPOCH":10052,"BSTAR":-4.0088203e-5,"MEAN_MOTION_DOT":-1.364e-5,"MEAN_MOTION_DDOT":0},{"OBJECT_NAME":"TEVEL2-8","OBJECT_ID":"2025-052AF","EPOCH":"2026-03-09T16:02:08.542752","MEAN_MOTION":15.28392908,"ECCENTRICITY":0.0008031,"INCLINATION":97.4055,"RA_OF_ASC_NODE":324.2923,"ARG_OF_PERICENTER":124.9191,"MEAN_ANOMALY":235.2804,"EPHEMERIS_TYPE":0,"CLASSIFICATION_TYPE":"U","NORAD_CAT_ID":63239,"ELEMENT_SET_NO":999,"REV_AT_EPOCH":5480,"BSTAR":0.00069303947,"MEAN_MOTION_DOT":0.0001913,"MEAN_MOTION_DDOT":0}]
